{"type":"FeatureCollection","source":"PacificNG Nevada County Narrow Gauge Railroad map v0.8.1, drawn by Andrew Brandon","source_url":"https://pacificng.com/template.php?page=roads/ca/ncng/routege.htm","basis":"California PUC valuation maps (1912), ICC valuation maps (1916), historic maps, aerial photography, and field research","features":[{"type":"Feature","properties":{"name":"Untitled Path","description":"","folder_path":"OL-NCNG-1912-byAndrewBrandon.kmz / Nevada County Narrow Gauge ca. 1916 / Trackage / Oilville","style_url":"#msn_ylw-pushpin184","resolved_style_url":"#sn_ylw-pushpin513","line_color":"#ffaa00","line_opacity":1.0,"line_width":2.0},"geometry":{"type":"LineString","coordinates":[[-120.9491043969917,39.1049864110194],[-120.9490400419265,39.10503717398176],[-120.9489654598694,39.1050842770121],[-120.9486793303998,39.10520157603665]]}},{"type":"Feature","properties":{"name":"Untitled Path","description":"","folder_path":"OL-NCNG-1912-byAndrewBrandon.kmz / Nevada County Narrow Gauge ca. 1916 / Trackage / Oilville","style_url":"#m_ylw-pushpin5","resolved_style_url":"#s_ylw-pushpin7","line_color":"#ff9900","line_opacity":1.0,"line_width":2.1},"geometry":{"type":"LineString","coordinates":[[-120.9505206511861,39.10360180842555],[-120.9502940821716,39.10389233288676],[-120.950082631816,39.10414016607125],[-120.949863084719,39.10434955366883],[-120.9496705805147,39.10454339131581],[-120.9491145477312,39.10515465670856]]}},{"type":"Feature","properties":{"name":"Standard Gauge Gravel Spur","description":"","folder_path":"OL-NCNG-1912-byAndrewBrandon.kmz / Nevada County Narrow Gauge ca. 1916 / Trackage","style_url":"#msn_ylw-pushpin8","resolved_style_url":"#sn_ylw-pushpin","line_color":"#aa0000","line_opacity":1.0,"line_width":2.0},"geometry":{"type":"LineString","coordinates":[[-120.9466645572245,39.14274848654145],[-120.94638568103,39.14304145728784],[-120.9459342322584,39.14335394920496],[-120.9445169696642,39.14421314868246],[-120.9442099671031,39.14439953619977],[-120.9439245352022,39.14446846317325],[-120.9436039647196,39.14447974220931],[-120.9433048515419,39.14441680503461],[-120.9429053151811,39.14438477512693],[-120.9421568742694,39.14448375955399],[-120.9416743728329,39.14469132452741],[-120.9411292491323,39.14491179317223],[-120.9406216655778,39.14508080572744],[-120.9401470707038,39.14525597543669],[-120.9394132974421,39.14549315074005],[-120.9389918488886,39.1456765272488],[-120.9388041158089,39.14586237810655],[-120.9387139890629,39.1461658441046],[-120.9386593849533,39.14648544356335],[-120.9385620910883,39.14703690770627]]}},{"type":"Feature","properties":{"name":"Original Mainline","description":"Built in 1875.\nSection from Coleman to Gables operated as Coleman's Spur 1908 - 1912.\nRemoved 1912.","folder_path":"OL-NCNG-1912-byAndrewBrandon.kmz / Nevada County Narrow Gauge ca. 1916 / Trackage","style_url":"#msn_ylw-pushpin7","resolved_style_url":"#sn_ylw-pushpin2","line_color":"#ffaa00","line_opacity":1.0,"line_width":2.5},"geometry":{"type":"LineString","coordinates":[[-120.9413788390489,39.13375421562667],[-120.9413930789206,39.13394544935153],[-120.9413969557932,39.13411992017792],[-120.9413671664576,39.13422800933461],[-120.9412928143111,39.13435429405202],[-120.9408901355617,39.13522301481719],[-120.940768058384,39.13552802953127],[-120.9406784266028,39.13595118321808],[-120.9407042944019,39.13622969662907],[-120.9408322876596,39.13647797886603],[-120.9410852742914,39.13660649383357],[-120.9416593718773,39.13674846803226],[-120.9423215329904,39.13698993892847],[-120.9427213743836,39.13722834840424],[-120.9432003497193,39.13764648973908],[-120.9440288985651,39.13823951590812],[-120.9446128489612,39.13854410800344],[-120.9449634763774,39.13864804590987],[-120.9454532785097,39.13860005398426],[-120.9458231818997,39.13847305964098],[-120.9462645604745,39.13834013691886],[-120.9466595588741,39.13837524031199],[-120.9470319087504,39.13848144786535],[-120.9473918990248,39.1387308532042],[-120.9475807682291,39.13912988774801],[-120.9476933764173,39.1396194512828],[-120.947569825695,39.14023096574832],[-120.9472531867552,39.14133555217319],[-120.9468336611253,39.14207867237781],[-120.9468079653462,39.14239061906329],[-120.9466739808715,39.14276658649627],[-120.9467215440504,39.14306493012165],[-120.9468350841689,39.143364881553],[-120.9477164169402,39.14479014231717],[-120.9484911867437,39.14524433535227],[-120.9486583276575,39.14536109094863],[-120.9488843458355,39.14565862075205],[-120.9488752173869,39.14605301807951],[-120.9488134806599,39.14644103230173],[-120.9487486838855,39.14690585427672],[-120.9485662822421,39.14733711188043],[-120.9483446121798,39.147593181312],[-120.9480383269693,39.14781645308841],[-120.9471215487173,39.14807979483061],[-120.9465791938967,39.14858946812593],[-120.9459585850958,39.14956874947944],[-120.9458751841257,39.15000234325481],[-120.9460424460299,39.15044710272264],[-120.9463974256171,39.15082462874423],[-120.9473106001416,39.15145645531208],[-120.9475613461126,39.15163160485447],[-120.9477161868552,39.15189158722765],[-120.9477544872929,39.15212645222164],[-120.9478144609655,39.15261251274139],[-120.9477376651019,39.15322818081743],[-120.947733988865,39.15392856691275],[-120.9476856110777,39.15435981130993],[-120.9475885283346,39.15478104279843],[-120.9477177668089,39.15506046116334],[-120.9478370973699,39.15529396590146],[-120.9486005688053,39.15640772835449],[-120.9489155065163,39.15679947579882],[-120.9492182920641,39.15721105574031],[-120.9494255964369,39.15754499176553],[-120.9495699778638,39.15797300254473],[-120.9496078640404,39.15864787581906],[-120.9494748628092,39.15914309614582],[-120.949699436479,39.15976197859831],[-120.9502138580478,39.16034015666335],[-120.9503754421573,39.16086372717268],[-120.9519395995678,39.16335721830696],[-120.9526816168348,39.16463244091837],[-120.9536003876737,39.16615449660819],[-120.9541784634269,39.16680163061453],[-120.955305530954,39.16777733422815],[-120.9557688162532,39.16810090106299],[-120.9560857591941,39.1682876769458],[-120.9566654682516,39.16875418666298],[-120.9568913186787,39.16905167575579],[-120.9570192584933,39.16933979184451],[-120.9572220216388,39.16960047795154],[-120.9574674500658,39.16978776668671],[-120.9576877569697,39.16987760298242],[-120.9578473897087,39.16991580621462],[-120.9580380936867,39.16995413068122],[-120.9581922146433,39.16996975162798],[-120.9583904065434,39.16997672877623],[-120.9585611696034,39.16995736315847],[-120.9586994152775,39.1699424492037],[-120.9588358689146,39.16991541416324],[-120.9589889385525,39.169874751505],[-120.9591502296209,39.169820543733],[-120.9592947880885,39.16974827603505],[-120.9594013810471,39.16961984018013],[-120.9594872564282,39.16948539054057],[-120.959520319694,39.1693609177501],[-120.959539550155,39.16919563664095],[-120.9595002348688,39.16900363699442],[-120.959439584306,39.1687431228681],[-120.9593485821758,39.16852545087492],[-120.9592372465737,39.16834541267447],[-120.9591013925804,39.16819576772055],[-120.9589154060437,39.16806954417791],[-120.9585842534133,39.16783032855747],[-120.9581485813375,39.16744791968264],[-120.9579706630973,39.16721717504461],[-120.9576616400017,39.16697480445111],[-120.9574266645869,39.16668567081835],[-120.9571891298191,39.16631531889664],[-120.9570100608103,39.1660614198376],[-120.9568878046952,39.16581760194327],[-120.9568357725349,39.16560121300169],[-120.9568521684527,39.16533755482235],[-120.9569713146932,39.16517175171403],[-120.9571046801537,39.16509692430486],[-120.957255202504,39.16508046111799],[-120.9573926753944,39.16507647814365],[-120.9575220128227,39.16505077762331],[-120.9576137971005,39.16496149848027],[-120.9576651076584,39.1648243897673],[-120.9576039537561,39.16460795779594],[-120.957509149607,39.1644718035986],[-120.9572649376293,39.16425129084565],[-120.956935782294,39.1639761432727],[-120.9567330631765,39.1638223384936],[-120.9566252493434,39.16368835076561],[-120.9565409177088,39.16351185337427],[-120.9565192472443,39.16332934449422],[-120.9565228119287,39.16312750937929],[-120.956498474258,39.16292409124424],[-120.9564257223009,39.1627079838106],[-120.9563473578264,39.16254460473422],[-120.9562798376082,39.16244510120421],[-120.9561879668639,39.16235537651183],[-120.9560315859027,39.16225294026821],[-120.9558748197676,39.16218799505365],[-120.9556752259674,39.16211185997753],[-120.9553107228635,39.16199071591126],[-120.9550118337369,39.16190173573319],[-120.9547798189467,39.16180754025133],[-120.9545844372295,39.1616161272817],[-120.9544400218341,39.16137818379064],[-120.9543560779656,39.16112964724616],[-120.9541452658734,39.16011686995575],[-120.9541986357571,39.15960951125911],[-120.9543189573124,39.15933897075516],[-120.9546100031555,39.15907296505368],[-120.9549769112871,39.15885615373518],[-120.955320937043,39.15878946503369],[-120.9560548540093,39.15869504980899],[-120.9565168718387,39.1585089017774],[-120.9567755583846,39.15821831439946],[-120.9570556583797,39.15779625670491],[-120.9574507586591,39.1573671455847],[-120.9577878647676,39.15715226521674],[-120.9583694748981,39.15689939333783],[-120.9586435234187,39.15678446637946],[-120.9588773507356,39.15659199764416],[-120.9592345680169,39.15598100007351],[-120.9595331120574,39.1553983908619],[-120.9595521598618,39.15501145509461],[-120.9596475615395,39.15466460165717],[-120.9597975730239,39.15387854222933],[-120.9599179942509,39.15322144135168],[-120.9600852782026,39.15285219016661],[-120.9603055334651,39.15249229797523],[-120.9607096554746,39.15220601653883],[-120.9610699551752,39.15204410646731],[-120.9616432428379,39.15191602789307],[-120.9620568494181,39.15190304327182],[-120.962388330173,39.15201681785582],[-120.9626430607713,39.15225317524371],[-120.9628185030165,39.15248231587163],[-120.9631580166269,39.15328170795341],[-120.9632734756507,39.15368261753031],[-120.9634740606576,39.15407451524514],[-120.9637336377368,39.15428315387911],[-120.9640636785958,39.15443869669004],[-120.9644510763628,39.15449789562168],[-120.9647974357904,39.15448096989938],[-120.9662938629368,39.15413771067823],[-120.9667340381334,39.15409071643245],[-120.967132003201,39.15418189481652],[-120.9673765209266,39.1542816294733],[-120.9676733553979,39.15447816245155],[-120.9678195981623,39.15461840913687],[-120.9680204781408,39.15479153299673],[-120.9681658744613,39.15501170568404],[-120.9683391317862,39.15536740569082],[-120.9684701952036,39.15568066994697],[-120.9685385277762,39.15596406327806],[-120.9687652787088,39.15909662470005],[-120.9688221545594,39.1600366638732]]}},{"type":"Feature","properties":{"name":"Mainline","description":"","folder_path":"OL-NCNG-1912-byAndrewBrandon.kmz / Nevada County Narrow Gauge ca. 1916 / Trackage","style_url":"#msn_ylw-pushpin0","resolved_style_url":"#sn_ylw-pushpin0","line_color":"#ff5500","line_opacity":1.0,"line_width":2.5},"geometry":{"type":"LineString","coordinates":[[-120.954044729295,39.09515395946119],[-120.9542549955685,39.09594266379889],[-120.9542736175865,39.09601319404963],[-120.9542791469154,39.09607929143849],[-120.9542765703289,39.09615319796178],[-120.9542604866028,39.09622955886403],[-120.9542440313181,39.09629853327122],[-120.9542172329677,39.09637695574417],[-120.9541627357744,39.09649640545217],[-120.9540978130111,39.09662095063916],[-120.9533189393899,39.09817671906174],[-120.9532486709013,39.09830184247681],[-120.9532066218686,39.09839280589016],[-120.9531028727287,39.09877099579846],[-120.9529175038535,39.09946053829336],[-120.9527026801548,39.10007699355651],[-120.9526512630571,39.10022509179079],[-120.9525815990325,39.10037649397145],[-120.9524859255744,39.10054585529802],[-120.951813,39.10165],[-120.9509171458611,39.10306276136201],[-120.9505708969008,39.10353411638379],[-120.950493223595,39.10362467057766],[-120.9503956472222,39.10371500593159],[-120.9500772656181,39.10394219287618],[-120.9499789660481,39.10402553702004],[-120.9492357923308,39.10484453557939],[-120.9488486660699,39.10526869809709],[-120.9482378027561,39.10595266956097],[-120.9480285210595,39.1062462703044],[-120.9477985497388,39.10662311814749],[-120.9476043014533,39.10694516639049],[-120.9473042081914,39.10737264008344],[-120.9472081234339,39.10758795492647],[-120.9471564020577,39.10803941515833],[-120.9471202299052,39.10822983245438],[-120.9470339113003,39.10843288034272],[-120.9468989435012,39.10867715704831],[-120.9466665855863,39.10894576885445],[-120.9464770353428,39.10931883832181],[-120.9463836560536,39.1096553487528],[-120.9464456902872,39.10996202724768],[-120.946519124437,39.1104966978648],[-120.9464774471743,39.11089576108348],[-120.9462583693498,39.11145548206362],[-120.9460798202135,39.1117591217417],[-120.945826678853,39.11198534954721],[-120.9456052509988,39.11211547600754],[-120.9454047302805,39.11221387882867],[-120.9451285782431,39.11231286159013],[-120.944966784232,39.11241471765548],[-120.9448951893629,39.11252680873049],[-120.9448503526161,39.11272947337034],[-120.9448134697652,39.1128666707969],[-120.9447361862704,39.11302028916402],[-120.9446456115528,39.11314849262335],[-120.9445434322655,39.11330342755001],[-120.944526696604,39.11345670101376],[-120.9445803657948,39.11364710150252],[-120.9447838911481,39.11381546881041],[-120.9450219996853,39.11392709546497],[-120.9453045795071,39.11399870979664],[-120.945597094131,39.11416623725686],[-120.945722529231,39.11440248615435],[-120.9457179881599,39.11466113802377],[-120.945583138068,39.11495199604001],[-120.9454059519878,39.11510886737563],[-120.9452466692456,39.11527509417603],[-120.9450216588404,39.11544010031569],[-120.9447778078051,39.11561867959697],[-120.9437595322223,39.11627603778317],[-120.9434294807732,39.11648848163625],[-120.9431336801963,39.11672417944187],[-120.942494128709,39.11718742002187],[-120.9420814268973,39.11763675588027],[-120.9417614493829,39.1181635435494],[-120.9412267309847,39.11960359221953],[-120.9411878261043,39.11993920773934],[-120.9412485063595,39.12026067188352],[-120.9413622162369,39.1204663996005],[-120.9415869907297,39.12064177540268],[-120.9418228808105,39.12087933592718],[-120.9419102028785,39.12106267133595],[-120.9419230520913,39.12127708701683],[-120.9418748841634,39.12146918303004],[-120.9417903202222,39.12166963029116],[-120.9414621973608,39.12240993475894],[-120.9413783847219,39.12258239823922],[-120.9412158993998,39.12282128762287],[-120.9409768057866,39.12305540157972],[-120.940735048562,39.12323923548626],[-120.9404989979889,39.12336833775238],[-120.9400324965216,39.12352667250047],[-120.9398561128076,39.12365385444983],[-120.9397435870603,39.12384111477563],[-120.9397188103801,39.12404778961044],[-120.939788806934,39.12420475310888],[-120.940000379493,39.12453817558088],[-120.9400774462602,39.12477729768143],[-120.9400621406175,39.12509360612579],[-120.9399679520848,39.12539213420788],[-120.9397950560034,39.12585087782004],[-120.9396820578254,39.12615300537998],[-120.9396303240478,39.12639310867681],[-120.9397275833257,39.12714435508705],[-120.9397313945943,39.12776062286009],[-120.9397608044752,39.12798324194223],[-120.9398560811386,39.12816990583267],[-120.9399891723995,39.12830308940896],[-120.9401881989009,39.12844713330838],[-120.9404998678261,39.12857652682269],[-120.9410714643658,39.12887704817934],[-120.9413295398032,39.12903403939747],[-120.9415047317495,39.12919937797376],[-120.9416525581702,39.12936895128664],[-120.9417343494949,39.12957936123716],[-120.9417906853498,39.1298144803739],[-120.9417559464939,39.1300390471017],[-120.9416168467087,39.1302883595876],[-120.9412326245566,39.13058352430434],[-120.9409574262953,39.13080129831902],[-120.9408208122736,39.13097627547754],[-120.9407770650821,39.13116799068632],[-120.9408484850694,39.13142488885634],[-120.9410288295855,39.13178830695668],[-120.9411410375388,39.13208631490153],[-120.9411461534878,39.13238250106038],[-120.9410869291134,39.1326473981052],[-120.9411286150681,39.13294920101537],[-120.9412620412143,39.13331445511288],[-120.9413577752967,39.1337143301233],[-120.9415381659146,39.13398690268188],[-120.9421251683463,39.13464060055618],[-120.9422953008481,39.13485508576552],[-120.9423973267765,39.13500754951451],[-120.9425141902381,39.13525329850979],[-120.9427050304062,39.13577461562461],[-120.9428411081227,39.13600587001028],[-120.9430285748186,39.136254290803],[-120.9431727608873,39.13640998113707],[-120.9433941138265,39.13661977025598],[-120.9435686602931,39.13673703906302],[-120.9437942253698,39.13686387407295],[-120.9440235093182,39.13699581076701],[-120.9441402093763,39.13707256959296],[-120.9443151004738,39.1371312656547],[-120.9445145674469,39.13718268906606],[-120.944659972571,39.13721013040113],[-120.9447866602788,39.13720538146015],[-120.9449271027341,39.13717148423363],[-120.9450374127708,39.13713240288893],[-120.9458182959969,39.13670099024031],[-120.9459466294868,39.13663971466773],[-120.946078569221,39.13659058884547],[-120.9462311413605,39.13654756802138],[-120.9464316818948,39.13649602463999],[-120.9471982606791,39.13633046436804],[-120.9473896336941,39.13627787584033],[-120.9475868081806,39.13620285462862],[-120.9477949049787,39.13608758135303],[-120.9479111919034,39.1360125401533],[-120.9482531305354,39.13579974596641],[-120.9487836872098,39.1354822135818],[-120.9490290235816,39.13534998198611],[-120.9491771509471,39.13525363690834],[-120.9493282744341,39.13517048712314],[-120.9495894330324,39.13499154513305],[-120.9497911456751,39.13488949903562],[-120.9498836920322,39.13483744467469],[-120.9501372638458,39.13474346374998],[-120.9504297792814,39.13467793374975],[-120.9507256449942,39.13463898348067],[-120.9510085844898,39.13463171353033],[-120.9512347063082,39.1346496787355],[-120.9514290782484,39.13468978772229],[-120.9545476774637,39.13544717364322],[-120.9549045681198,39.13553129610737],[-120.9553302894112,39.13571776098134],[-120.9563132567441,39.13610426342776],[-120.9565013604267,39.13614030444323],[-120.9567604448373,39.13611882581039],[-120.9582771932494,39.13599614235716],[-120.9585063025257,39.13598539348845],[-120.9587578115356,39.13597631145448],[-120.9590283580766,39.13598801951727],[-120.9592358133204,39.13602875611895],[-120.9595113097729,39.13611678785387],[-120.9596594520718,39.13620659911928],[-120.9601373374793,39.13654604181676],[-120.9604068585276,39.13671136074154],[-120.9606797173367,39.13686235132577],[-120.9608817522046,39.13696940418634],[-120.9610524747225,39.13706504310181],[-120.9612486179726,39.13719076697929],[-120.9617457074017,39.13753636901238],[-120.9618807948528,39.13761658808443],[-120.9619955816858,39.13768059378705],[-120.962140548444,39.13773750081814],[-120.9623179687466,39.13777584218211],[-120.9626334798429,39.13781985626725],[-120.9627654827222,39.13783241409701],[-120.9629079924326,39.13785979462912],[-120.9630145898997,39.13789427610751],[-120.9631136000887,39.13794205716579],[-120.9633573473269,39.13809643565545],[-120.9637769857238,39.13836233493517],[-120.9639973978387,39.13849202629194],[-120.9641427847151,39.13855605452583],[-120.9642904944498,39.13860680866201],[-120.9644491659889,39.13864228184852],[-120.964632177701,39.1386704689761],[-120.9648045843027,39.13868358508009],[-120.9649366137129,39.13868350578649],[-120.9653980513429,39.1386359354042],[-120.965674605336,39.13857806393301],[-120.9660384163704,39.13849026839698],[-120.9671020824705,39.13821716559851],[-120.9674485473709,39.13819560035981],[-120.9679001514071,39.13822856817193],[-120.9682061930096,39.13829478266868],[-120.9685702736917,39.13841695988949],[-120.9688895611257,39.13857959015854],[-120.9691393427035,39.13877355575645],[-120.9696656499898,39.1391519074579],[-120.9700023998349,39.13936097085515],[-120.9703444467026,39.13950011864863],[-120.9703990796843,39.13951975520494],[-120.9707152517296,39.1395555416683],[-120.9709828300222,39.13952446448985],[-120.9713196714865,39.13946877193544],[-120.9716719095564,39.13949488370198],[-120.9720011103521,39.13956851968484],[-120.9722497338719,39.13970332956395],[-120.9723539393373,39.1399041581871],[-120.9723624206928,39.14012115719758],[-120.9722912878024,39.14033398312287],[-120.972046603334,39.14086439798644],[-120.9718332369856,39.141649818082],[-120.9717068673428,39.14197301829051],[-120.97156685839,39.14218258518584],[-120.9713385913994,39.14240145423271],[-120.9710816177455,39.14256341142633],[-120.970076611853,39.14316150271251],[-120.9695852192268,39.14338936142315],[-120.9689478060271,39.14377041922624],[-120.9687584328297,39.14398746830685],[-120.9686524388333,39.1441854071204],[-120.9685164018523,39.14458533127751],[-120.9684029167573,39.14493309792969],[-120.9683743920223,39.1451288972338],[-120.9683740699425,39.14536549991652],[-120.9685226166167,39.14629223988885],[-120.9685271694332,39.14649655293023],[-120.9685128632969,39.14668038731508],[-120.9684290968699,39.14709014566499],[-120.9682057932713,39.14807263035605],[-120.9679734683645,39.14894506876027],[-120.9679425699429,39.14919303788813],[-120.967979,39.149471],[-120.9680321512479,39.14979627186787],[-120.9681182210056,39.15007929426341],[-120.968529,39.150719],[-120.9686250563727,39.15096139410863],[-120.9686577964446,39.15127389924601],[-120.9687316211938,39.15304120564093],[-120.9687736353726,39.15350408190572],[-120.9689434788094,39.15436144616996],[-120.9692128276686,39.15509873669157],[-120.9695570951165,39.15608983725969],[-120.9695650412718,39.15637807692753],[-120.9694213232148,39.15683468481964],[-120.9690930225216,39.1580219430109],[-120.9690032743004,39.15849202466917],[-120.9687776688645,39.1608094787649],[-120.9686625503811,39.1620399781151],[-120.9686460327792,39.1626495912206],[-120.9686377301374,39.16366161009757],[-120.9686885278438,39.16516510144778],[-120.9687434435818,39.16565928985175],[-120.9688094202498,39.16596524728043],[-120.9688972725443,39.16622006406315],[-120.9689991747327,39.16644785806842],[-120.9691280928021,39.16665813736179],[-120.9692221586816,39.16680608796466],[-120.9699550230388,39.16791172040991],[-120.970548206211,39.16864056045579],[-120.9725919986401,39.17085897965601],[-120.9727898275476,39.17121926352309],[-120.9728655532155,39.17152018537099],[-120.9730768125727,39.17300114874654],[-120.9732216277548,39.17332739857484],[-120.9735180157646,39.17362156679418],[-120.9741187574657,39.17406075399081],[-120.9751992033399,39.17522721689242],[-120.9758663191213,39.17621972770128],[-120.9760007454,39.17696833362376],[-120.9759478578265,39.17748428768963],[-120.9757215664098,39.17786975936446],[-120.9754914873097,39.17809638160784],[-120.9752241955333,39.17829565372269],[-120.975075591326,39.17848772621415],[-120.9749521902022,39.17900015203578],[-120.9744122137819,39.17987178970392],[-120.9742811940497,39.18048947459251],[-120.9740760501124,39.18084704697758],[-120.9737900161573,39.18107445861148],[-120.9734037515109,39.18123374911444],[-120.9728959531219,39.18131277522151],[-120.972066066179,39.18161197548194],[-120.9718645193397,39.18177031751702],[-120.9717433658844,39.18190267727859],[-120.9715741100434,39.18211840241285],[-120.9714902409856,39.18227173607485],[-120.9713889741394,39.18267081268797],[-120.9713392108926,39.18293768869673],[-120.9713321582655,39.18329534407052],[-120.9713594758932,39.18361271571086],[-120.9714520858118,39.18413980598344],[-120.9715226161655,39.18455671655773],[-120.971992,39.18626],[-120.9726064532744,39.18839058290705],[-120.9727157656268,39.18873330657244],[-120.9728357611881,39.18895972730209],[-120.9729636366394,39.189136610523],[-120.9730999839206,39.18925645533733],[-120.9733630755051,39.18941384166435],[-120.9736360498706,39.18952441254483],[-120.9739314516892,39.18960554230679],[-120.9741036670526,39.18963154237307],[-120.9745312677168,39.18967827602172],[-120.9757532647945,39.18975891176315],[-120.9759573126897,39.18980067909052],[-120.9761580703537,39.18986685511386],[-120.976326772796,39.18994679682488],[-120.9764865988596,39.19003499471382],[-120.9777278389419,39.19074201438052],[-120.9787700132877,39.19122505953133],[-120.9791478543253,39.19131823160649],[-120.9795301222529,39.19135580681073],[-120.9800893364751,39.19134116696179],[-120.9805653828609,39.19127411739449],[-120.9810260621518,39.19113428404082],[-120.9814697962788,39.19094454399499],[-120.9818493386921,39.19070598160565],[-120.9820899572177,39.190414971953],[-120.9825114900161,39.18972210783753],[-120.9827697300318,39.18942456774491],[-120.9830375824969,39.18922014340173],[-120.9834289005648,39.18906370012474],[-120.9837334853125,39.18896336594752],[-120.9840057760265,39.18891459525572],[-120.9843027956421,39.1889190818055],[-120.9846462404534,39.18898674742798],[-120.9850468459457,39.18909892607374],[-120.9858598892476,39.18932362094637],[-120.9868141901452,39.18943005497218],[-120.987587694385,39.18926539460308],[-120.9878042005698,39.18921108929121],[-120.9879958452298,39.18913963519046],[-120.9882825422893,39.18898155394215],[-120.9889736097324,39.18866800375599],[-120.9891438177905,39.18860937946871],[-120.9893384494654,39.1885636543548],[-120.9895227805915,39.18853280003002],[-120.9897899364516,39.188522882333],[-120.990021790709,39.18854731479934],[-120.9919392908046,39.18896896104356],[-120.9931509597051,39.1890756062465],[-120.9938472725842,39.18926389144311],[-120.994531589997,39.18952785517632],[-120.9949980090468,39.18989483496891],[-120.9954387954749,39.19042677511909],[-120.9957154467395,39.19105432682767],[-120.9960211503379,39.19139372513384],[-120.9964062796217,39.19162072631733],[-120.9967605103413,39.19175119613455],[-120.9971877315059,39.1917254373306],[-120.9975100036216,39.19168265892074],[-120.9978486821871,39.19168416392738],[-120.9984095090026,39.19166069950109],[-120.9990147725003,39.1917779651329],[-120.9994273176836,39.19189046869376],[-120.9999948060386,39.19204052959344],[-121.000559682681,39.19212985886443],[-121.0012357591757,39.19217675694647],[-121.0019537283226,39.1922317026915],[-121.0022903623097,39.19222223112421],[-121.0024634313605,39.19220773877522],[-121.0026912376988,39.19215869238361],[-121.0030232890219,39.19203320088436],[-121.0035024130757,39.19187081026374],[-121.0040016046028,39.19170925070225],[-121.0046713310227,39.19165186674017],[-121.0051153280602,39.19169338313893],[-121.005481237357,39.19182278873821],[-121.0058799923534,39.19200478088453],[-121.0062734315289,39.19217827216721],[-121.0070457791682,39.19256340763034],[-121.0079038481061,39.19283371950153],[-121.008648461347,39.19300530999144],[-121.0090038768271,39.19321022911846],[-121.0093126454272,39.19349925510858],[-121.0095724796876,39.19382103854394],[-121.0097909495284,39.19414132260535],[-121.0100317716857,39.19452638796074],[-121.0102295155839,39.19501940137159],[-121.0103682669294,39.19551966594062],[-121.0107008624704,39.19682821084346],[-121.0107510300575,39.19722366520458],[-121.0107641893992,39.19754948503537],[-121.0107375826215,39.19830937908487],[-121.0106438828515,39.19935901615065],[-121.01032019447,39.20066479505323],[-121.0100766008076,39.20119361981006],[-121.0097036638452,39.20253430160028],[-121.0095987093895,39.20318642984454],[-121.0095719699966,39.20361585194214],[-121.0095670156478,39.20396452741727],[-121.0096607038448,39.20442171790084],[-121.0097516438161,39.2047390427711],[-121.0098762181696,39.2050117894518],[-121.0100084169109,39.20534835791136],[-121.0100231278072,39.20549751561152],[-121.0099422608297,39.20568469796433],[-121.0097249759246,39.206053106993],[-121.0096612566586,39.20625373972196],[-121.0096799008712,39.206574643386],[-121.0099035717553,39.20695055513109],[-121.0101252119959,39.20714114023267],[-121.0104343522118,39.2072790986566],[-121.0106884677983,39.20732897307105],[-121.0109907474669,39.20731648331808],[-121.0112770916238,39.20728951887607],[-121.0116872849064,39.20724786551405],[-121.0121123887441,39.2072228408795],[-121.0126460287897,39.20723184406162],[-121.0138359982909,39.20748489901055],[-121.014505558987,39.20815214706569],[-121.0159765536842,39.20949918345282],[-121.016443029901,39.20989986746542],[-121.0169634977929,39.21025459747504],[-121.0173307532918,39.21043281879195],[-121.0176766465972,39.21050904628088],[-121.0179409583909,39.21049740659284],[-121.0184271731758,39.21043017506553],[-121.0187258302831,39.21047596790588],[-121.0190267110052,39.21059954714044],[-121.0192584229852,39.21075859429574],[-121.0198362515136,39.21119414980025],[-121.0213617759161,39.21224003216907],[-121.0215369415242,39.21233260135875],[-121.0217604169311,39.21241859333189],[-121.021952379391,39.21244408113412],[-121.0221653496759,39.21241820247093],[-121.0224174978921,39.21235019496977],[-121.0226779922282,39.21230869233525],[-121.0230186655798,39.21231146541227],[-121.02324544607,39.21238254264131],[-121.0235318731887,39.21252397558658],[-121.023727394664,39.21263738432759],[-121.0242528809109,39.21308288256267],[-121.0250527281751,39.21380153331356],[-121.0254876711463,39.21411801203293],[-121.0263330669006,39.21468442362176],[-121.0273594186533,39.21539483073969],[-121.0283588224239,39.21603103988939],[-121.0289401822328,39.21626703768045],[-121.0314098119446,39.216662958901],[-121.0318867771629,39.21667238568371],[-121.0321009035032,39.2166551857159],[-121.0322834820004,39.21659079972512],[-121.0324159164138,39.2164657462075],[-121.0327209828852,39.21613659685259],[-121.0328279412297,39.21606065294507],[-121.0329925607603,39.21600477937669],[-121.0332430736398,39.21596706770175],[-121.033820745734,39.21594342356353],[-121.0344130209018,39.21598008764557],[-121.0349617867416,39.21610468131357],[-121.0353750817309,39.21626354922803],[-121.0357839430599,39.21648482003126],[-121.0361415273786,39.21668964995133],[-121.0363367233894,39.21684184793452],[-121.0365271900503,39.21709196724415],[-121.0366630988328,39.21734045663497],[-121.0367728423413,39.21758871242772],[-121.0369136009046,39.21784728107804],[-121.0370478044114,39.21808567622563],[-121.0372059962865,39.21825069948191],[-121.0374047472823,39.21834660939227],[-121.0376305146325,39.21838747496474],[-121.03785627354,39.21834926238235],[-121.0380419413316,39.21826417980722],[-121.0381895536137,39.21812888562997],[-121.0386921896984,39.21745054557887],[-121.0388476120751,39.21730812309553],[-121.0391082079349,39.21716274106488],[-121.0393410831778,39.21709912191929],[-121.0397030632545,39.21708189011871],[-121.0403060934949,39.21711504936671],[-121.040663717035,39.217148852531],[-121.0412263193284,39.21727034266573],[-121.0418246871497,39.21740303535253],[-121.0424043969248,39.21754660774256],[-121.042973182586,39.21776386515213],[-121.0433738696952,39.21789837242083],[-121.0436703554937,39.21798417461111],[-121.0439733850319,39.21802830217076],[-121.0442756866551,39.21802538305668],[-121.0445264410416,39.21798001800458],[-121.0450156653187,39.21775307455078],[-121.0452163981248,39.21770184602042],[-121.0454465265608,39.21768473085545],[-121.0457365253463,39.21769635016101],[-121.0459088468599,39.21774509589983],[-121.0461297726591,39.21783088903175],[-121.0464693016526,39.2179949793211],[-121.0466780042772,39.21811623982807],[-121.0469904219314,39.21820018244442],[-121.0473436698239,39.21819520583526],[-121.0476448091266,39.21813242729657],[-121.0481553798097,39.21794113755951],[-121.0485504366193,39.21773672200472],[-121.0488955594872,39.21752153695389],[-121.0490226342083,39.21744483674991],[-121.049213458592,39.2173639865311],[-121.0494325288783,39.21729389082447],[-121.0500871395166,39.21718653329096],[-121.0508777855127,39.21704114845679],[-121.0512887050992,39.2169669927359],[-121.0517080446774,39.21688897091712],[-121.0520121010688,39.21681356862137],[-121.0526274870832,39.21666777271277],[-121.0531946149471,39.21661218108645],[-121.0535824149422,39.21658616731903],[-121.0542563711607,39.21658906161183],[-121.0545259883644,39.21660892045314],[-121.0550662204696,39.2166981411513],[-121.0554539291857,39.2167603392401],[-121.0559600808834,39.21682555928288],[-121.0565287546803,39.21693646616087],[-121.0566212379925,39.21695950220113],[-121.05676980459,39.21700854629854],[-121.0568979995625,39.21707274642272],[-121.0570117191709,39.21715101245513],[-121.0571076518571,39.21725026341605],[-121.057178198207,39.2173477170049],[-121.0572674850175,39.2174833496304],[-121.0573632688498,39.21762926845896],[-121.0577239990759,39.21816774292652],[-121.0578043699226,39.21829423538944],[-121.0578743102922,39.2184127327366],[-121.0579479480698,39.21853757758633],[-121.058001629571,39.21868603905953],[-121.0580212927245,39.21880812437234],[-121.058017617083,39.21899792203833],[-121.0579733846911,39.21915750862344],[-121.0579147516599,39.21926618372139],[-121.0578019599577,39.2194002601339],[-121.0576497057287,39.21951685535312],[-121.0574839770927,39.21959669618326],[-121.0571945693663,39.21967707689616],[-121.0568366705815,39.21977793009914],[-121.0566115858583,39.2198232546875],[-121.0564346753281,39.21984115209934],[-121.055702076698,39.21983852035539],[-121.0553899160095,39.2198466122135],[-121.054086054054,39.2200631623894],[-121.0532317382793,39.22028801588395],[-121.0524501081059,39.2206526168482],[-121.0516176242627,39.22096042408018],[-121.0512030590688,39.2211499186319],[-121.0505428871309,39.22153898395145],[-121.0503274159481,39.22165462445444],[-121.0500853045588,39.22182268370686],[-121.0499415638206,39.22195046152081],[-121.0497789912666,39.22215499545094],[-121.0496170746989,39.2224101395289],[-121.0495129825014,39.22256481593532],[-121.0493968952697,39.22268972822098],[-121.0491857596481,39.22281913772514],[-121.0489525773076,39.22289639755267],[-121.0487008567996,39.22294963356784],[-121.0484114863153,39.22298968103073],[-121.0480772627836,39.22300787841155],[-121.0476065398719,39.22298031566943],[-121.0468055799436,39.22288210978717],[-121.0453587810332,39.22285438662704],[-121.0443655011573,39.22284153132765],[-121.0438485351067,39.22290423717226],[-121.0434557993755,39.22299317144278],[-121.0427639985999,39.22336194352612],[-121.0421263261443,39.22356303273579],[-121.0399970565193,39.22402589925856],[-121.0395104477956,39.22414410372797],[-121.0389908563896,39.22421342321029],[-121.0370032512091,39.22429787327742],[-121.0360422982558,39.2243904725042],[-121.0356940580794,39.22444817338283],[-121.0352860098829,39.22463264397714],[-121.0342727084905,39.22497266746353],[-121.0339612101233,39.22504884617695],[-121.033578142568,39.22508739089625],[-121.0331805063067,39.22506560475734],[-121.0327386780123,39.22502222147399],[-121.0321430435637,39.22494396386211],[-121.0316160992141,39.22488245624583],[-121.0311866909978,39.22475327108628],[-121.0305093172103,39.22447344270348],[-121.0294802210781,39.22412713150853],[-121.0288415069047,39.22387082071857],[-121.028230785126,39.22378451040832],[-121.0277729294834,39.22383667957678],[-121.0267589860925,39.2240250753827],[-121.0257015790386,39.22438305884352],[-121.0244522933403,39.22479989651826],[-121.023932788973,39.22499250309443],[-121.0235389463816,39.2252578800063],[-121.0232465728545,39.2255441263243],[-121.0229533398225,39.22592802769902],[-121.0226972159148,39.2263087024239],[-121.0225484698799,39.2266198887965],[-121.0225008173964,39.22694591268943],[-121.0225031428029,39.2271667637258],[-121.022638741099,39.22749564796225],[-121.0236275006069,39.22924903108876],[-121.0242450424787,39.23019276447548],[-121.0262971480626,39.23301707749656],[-121.0274145743888,39.23394486284256],[-121.0280756649023,39.2347711246295],[-121.0285898310125,39.2355578854817],[-121.0288065857369,39.23594550918367],[-121.0289971395477,39.23632209736233],[-121.0290947633557,39.23647514412345],[-121.0292601823258,39.23660694933892],[-121.0294346360325,39.23666512317748],[-121.0298557855254,39.23676681721696],[-121.0307065739879,39.23698429427664],[-121.0310267871316,39.23713854909119],[-121.0313110979402,39.23738448685161],[-121.0317625037283,39.23786125080052],[-121.032100685862,39.23832463077689],[-121.032159721495,39.23891576417505],[-121.0320982570139,39.239339531896],[-121.03207597359,39.2395875172898],[-121.0321586238827,39.2399588845496],[-121.0322438643456,39.24016038393713],[-121.032872832698,39.24121402480687],[-121.0329180982524,39.24139840953617],[-121.0328420182157,39.2416295949472],[-121.0326805932466,39.24184424130224],[-121.0324451927747,39.24206952132336],[-121.0320948914471,39.24234891405584],[-121.0317504005873,39.24259926949198],[-121.0313653380661,39.2428797622066],[-121.0312554417137,39.24294506796748],[-121.0311731266284,39.24298773937635],[-121.029968772483,39.24338626956176],[-121.029801593168,39.24342550628334],[-121.0296842513535,39.24343861350202],[-121.0279671712356,39.24352726481254],[-121.0266844494735,39.24355458050249],[-121.0221519754124,39.24355121843615],[-121.0219634297939,39.24358269316281],[-121.0218048630726,39.24365012154522],[-121.0217137651218,39.24373465114503],[-121.0216128190764,39.24385790574446],[-121.0215504251033,39.24396671069573],[-121.0214236288143,39.24435680283201],[-121.021304288058,39.24481296777733],[-121.0212210013236,39.24499488271603],[-121.0211145172759,39.24516507416295],[-121.0209288046329,39.24540029560807],[-121.0206155865612,39.24567122855935],[-121.0203095287589,39.24586565194605],[-121.019935262731,39.2460843648882],[-121.0194716795871,39.24629613032201],[-121.0189971396756,39.24640814099778],[-121.0182658028838,39.24648119842782],[-121.0175178205966,39.24648664534425],[-121.0167725471956,39.24635170756448],[-121.0165571740107,39.24627906025743],[-121.0162951171065,39.24620495855888],[-121.0161106588208,39.2461837802126],[-121.0159113678695,39.24619182609808],[-121.0155916159028,39.24622079891526],[-121.0154495383717,39.24626116951403],[-121.0152524764776,39.24636993417044],[-121.0150934670423,39.24652706553045],[-121.0149656533031,39.24680305625705],[-121.0149000001572,39.24722757370618],[-121.0148732918432,39.24771310986456],[-121.0147709486387,39.24801656256949],[-121.0146121681348,39.24844157385156],[-121.0143457384944,39.24898091068511],[-121.0140499692987,39.24942540062713],[-121.0135511565059,39.25012215690765],[-121.0133294828242,39.25032210841883],[-121.0131129456725,39.25045126486745],[-121.0129020584237,39.25059219204515],[-121.0127509846404,39.25075085588795],[-121.0126328130874,39.25090175826152],[-121.0125457946487,39.25109048960172],[-121.0125177300079,39.25124144003908],[-121.0125129443607,39.25144856080468],[-121.0125641690844,39.25167238564147],[-121.0126412790655,39.25184518581396],[-121.0128193055919,39.2520263306644],[-121.0129855607946,39.25214526526996],[-121.0131639370063,39.25226193069344],[-121.0134064001092,39.25237444973777],[-121.0147634523819,39.25265238789701],[-121.0153035195281,39.25275693434693],[-121.0158990330752,39.25289784076694],[-121.0163252113408,39.25306408789171],[-121.0166734299242,39.25325611224405],[-121.0170061115544,39.25346339887884],[-121.0173888309348,39.25370855318916],[-121.0178593793433,39.25402105386706],[-121.0179556096991,39.2541057113703],[-121.0180562107504,39.25422371203396],[-121.0181200064302,39.25434245668879],[-121.0181613252121,39.25453358293161],[-121.0181706135193,39.25476130608303],[-121.0180967858631,39.25513626648301],[-121.0180423082491,39.25533127537388],[-121.0180139784219,39.25549312903685],[-121.0180208654147,39.25566459311069],[-121.0180606142918,39.2558383867765],[-121.018118157873,39.25599590061283],[-121.0182225423605,39.25623298232708],[-121.0182938812089,39.25635409078412],[-121.0183587294623,39.2564647598516],[-121.0184150171214,39.25663259734667],[-121.0184478776981,39.25677724382404],[-121.0184360593748,39.2569056274813],[-121.0183432135176,39.25708872714765],[-121.0182759654139,39.25719212123241],[-121.0181711909559,39.25730402820187],[-121.0180649823498,39.25739720295332],[-121.017982497296,39.25751256644519],[-121.0178906500953,39.2577367191227],[-121.0177975372487,39.25812889167847],[-121.0177607954132,39.25842075905076],[-121.0177610283052,39.25875367080244],[-121.0177823750733,39.25910733004945],[-121.0178134246488,39.25979547622828]]}},{"type":"Feature","properties":{"name":"Alpha Hardware Spur","description":"300' back to Oil Tanks","folder_path":"OL-NCNG-1912-byAndrewBrandon.kmz / Nevada County Narrow Gauge ca. 1916 / Trackage / Grass Valley Yard 1912","style_url":"#msn_ylw-pushpin372","resolved_style_url":"#sn_ylw-pushpin105","line_color":"#ffaa00","line_opacity":1.0,"line_width":2.0},"geometry":{"type":"LineString","coordinates":[[-121.0504999450926,39.21711181989144],[-121.0503792577264,39.21711482985727],[-121.0494673102687,39.21726677747296]]}},{"type":"Feature","properties":{"name":"Untitled Path","description":"","folder_path":"OL-NCNG-1912-byAndrewBrandon.kmz / Nevada County Narrow Gauge ca. 1916 / Trackage / Grass Valley Yard 1912","style_url":"#msn_ylw-pushpin470","resolved_style_url":"#sn_ylw-pushpin521","line_color":"#ffaa00","line_opacity":1.0,"line_width":2.0},"geometry":{"type":"LineString","coordinates":[[-121.057941117717,39.21852520712754],[-121.0580148522437,39.21863049536788],[-121.0580790142709,39.21873357283796],[-121.0581148287989,39.21880558226841]]}},{"type":"Feature","properties":{"name":"Untitled Path","description":"","folder_path":"OL-NCNG-1912-byAndrewBrandon.kmz / Nevada County Narrow Gauge ca. 1916 / Trackage / Grass Valley Yard 1912","style_url":"#msn_ylw-pushpin470","resolved_style_url":"#sn_ylw-pushpin521","line_color":"#ffaa00","line_opacity":1.0,"line_width":2.0},"geometry":{"type":"LineString","coordinates":[[-121.0573384578432,39.21715287229426],[-121.0571469225074,39.21708008541212],[-121.0570892876992,39.21706556832784],[-121.0570186768364,39.21705702291174],[-121.0569196530098,39.21704929338792]]}},{"type":"Feature","properties":{"name":"Untitled Path","description":"","folder_path":"OL-NCNG-1912-byAndrewBrandon.kmz / Nevada County Narrow Gauge ca. 1916 / Trackage / Grass Valley Yard 1912","style_url":"#msn_ylw-pushpin470","resolved_style_url":"#sn_ylw-pushpin521","line_color":"#ffaa00","line_opacity":1.0,"line_width":2.0},"geometry":{"type":"LineString","coordinates":[[-121.0571514502858,39.21736346813546],[-121.0571877745188,39.21745325455141],[-121.0572218393465,39.21754238863482],[-121.057257778907,39.21761413050904],[-121.0573038594981,39.21768716056955],[-121.0575899922989,39.21810476775475],[-121.0576295152451,39.21816210536548],[-121.0576810673761,39.21823156861274],[-121.0577501015178,39.21829815650023],[-121.0578222886039,39.21837604759884]]}},{"type":"Feature","properties":{"name":"Untitled Path","description":"","folder_path":"OL-NCNG-1912-byAndrewBrandon.kmz / Nevada County Narrow Gauge ca. 1916 / Trackage / Grass Valley Yard 1912","style_url":"#msn_ylw-pushpin470","resolved_style_url":"#sn_ylw-pushpin521","line_color":"#ffaa00","line_opacity":1.0,"line_width":2.0},"geometry":{"type":"LineString","coordinates":[[-121.0567036805318,39.21980480919031],[-121.0569203724155,39.21972044139114],[-121.0569947790749,39.21969976160766],[-121.0571014058741,39.21966689503727],[-121.0572020753917,39.21963967765745],[-121.0574023642143,39.21958054385421],[-121.0575558995748,39.21951550843263],[-121.057693934486,39.21942419403133],[-121.0577945864698,39.21933138306759],[-121.0578913491575,39.21919544281103],[-121.0579336513269,39.21910627929309],[-121.0579637146434,39.21900442693745],[-121.0579796951487,39.21887479292317],[-121.0579824652559,39.21876387416586],[-121.0579631762962,39.21867192476575],[-121.0579389723005,39.21858897676984],[-121.0579199059292,39.21853343933005]]}},{"type":"Feature","properties":{"name":"Untitled Path","description":"","folder_path":"OL-NCNG-1912-byAndrewBrandon.kmz / Nevada County Narrow Gauge ca. 1916 / Trackage / Grass Valley Yard 1912","style_url":"#msn_ylw-pushpin470","resolved_style_url":"#sn_ylw-pushpin521","line_color":"#ffaa00","line_opacity":1.0,"line_width":2.0},"geometry":{"type":"LineString","coordinates":[[-121.0569456463485,39.21710829594764],[-121.0570064270518,39.21717246829041],[-121.0570625537953,39.21723552240923],[-121.0571174469772,39.21730853351384],[-121.0571749944886,39.21739198629049],[-121.0573518870362,39.21765996982734],[-121.057730372964,39.21822917619373],[-121.0578727848382,39.21844710050276],[-121.0579203234092,39.21853281892238]]}},{"type":"Feature","properties":{"name":"Depot Siding","description":"","folder_path":"OL-NCNG-1912-byAndrewBrandon.kmz / Nevada County Narrow Gauge ca. 1916 / Trackage / Grass Valley Yard 1912","style_url":"#msn_ylw-pushpin470","resolved_style_url":"#sn_ylw-pushpin521","line_color":"#ffaa00","line_opacity":1.0,"line_width":2.0},"geometry":{"type":"LineString","coordinates":[[-121.0566462200269,39.21696605359722],[-121.0567764622797,39.21699701034886],[-121.0568639131318,39.21703756021997],[-121.056962437867,39.21709365041057],[-121.0570694567606,39.21717397843985],[-121.057155100132,39.21726527038248],[-121.0572700600764,39.21743408473375],[-121.0575547325838,39.21786824172916],[-121.0577098775222,39.21810031463259],[-121.0578102592009,39.21825170131564]]}},{"type":"Feature","properties":{"name":"Loading Track","description":"","folder_path":"OL-NCNG-1912-byAndrewBrandon.kmz / Nevada County Narrow Gauge ca. 1916 / Trackage / Grass Valley Yard 1912","style_url":"#msn_ylw-pushpin470","resolved_style_url":"#sn_ylw-pushpin521","line_color":"#ffaa00","line_opacity":1.0,"line_width":2.0},"geometry":{"type":"LineString","coordinates":[[-121.0573030840319,39.21717941193973],[-121.0570865921226,39.21710393461348],[-121.0569875689319,39.21706689509033],[-121.0568674824319,39.21703604479912]]}},{"type":"Feature","properties":{"name":"Untitled Path","description":"","folder_path":"OL-NCNG-1912-byAndrewBrandon.kmz / Nevada County Narrow Gauge ca. 1916 / Trackage / Grass Valley Yard 1912","style_url":"#msn_ylw-pushpin470","resolved_style_url":"#sn_ylw-pushpin521","line_color":"#ffaa00","line_opacity":1.0,"line_width":2.0},"geometry":{"type":"LineString","coordinates":[[-121.0569254743195,39.21971604183337],[-121.0572168874483,39.21960145237419],[-121.0573650548616,39.21954022981012],[-121.0575057865777,39.21946099332123],[-121.0576425596973,39.21935258194565],[-121.0577256726088,39.21926456898983],[-121.0577983202272,39.21916701163293],[-121.057860572578,39.21906876156137],[-121.0579127006659,39.21891477216872],[-121.0579389641722,39.21878371086434]]}},{"type":"Feature","properties":{"name":"Untitled Path","description":"","folder_path":"OL-NCNG-1912-byAndrewBrandon.kmz / Nevada County Narrow Gauge ca. 1916 / Trackage / Grass Valley Yard 1912","style_url":"#msn_ylw-pushpin470","resolved_style_url":"#sn_ylw-pushpin521","line_color":"#ffaa00","line_opacity":1.0,"line_width":2.0},"geometry":{"type":"LineString","coordinates":[[-121.0578076264108,39.21824902799285],[-121.0578644619733,39.2183973328598]]}},{"type":"Feature","properties":{"name":"Untitled Path","description":"","folder_path":"OL-NCNG-1912-byAndrewBrandon.kmz / Nevada County Narrow Gauge ca. 1916 / Trackage / Grass Valley Yard 1912","style_url":"#msn_ylw-pushpin470","resolved_style_url":"#sn_ylw-pushpin521","line_color":"#ffaa00","line_opacity":1.0,"line_width":2.0},"geometry":{"type":"LineString","coordinates":[[-121.0579478623048,39.21853786988355],[-121.0580118405716,39.21859657811338],[-121.0580944959908,39.21868375713083],[-121.0581555144859,39.21874686690352],[-121.0582128031748,39.21880373960791],[-121.0582540330859,39.21885693323634],[-121.0582825427852,39.21890725090139],[-121.0583087296399,39.21898023124709],[-121.0583235365861,39.21915706918365]]}},{"type":"Feature","properties":{"name":"Untitled Path","description":"","folder_path":"OL-NCNG-1912-byAndrewBrandon.kmz / Nevada County Narrow Gauge ca. 1916 / Trackage / Grass Valley Yard 1912","style_url":"#msn_ylw-pushpin470","resolved_style_url":"#sn_ylw-pushpin521","line_color":"#ffaa00","line_opacity":1.0,"line_width":2.0},"geometry":{"type":"LineString","coordinates":[[-121.0578088287986,39.21824837886354],[-121.0578875891564,39.21837798012336],[-121.0579669734141,39.21851685449503]]}},{"type":"Feature","properties":{"name":"Untitled Path","description":"","folder_path":"OL-NCNG-1912-byAndrewBrandon.kmz / Nevada County Narrow Gauge ca. 1916 / Trackage / Grass Valley Yard 1912","style_url":"#msn_ylw-pushpin470","resolved_style_url":"#sn_ylw-pushpin521","line_color":"#ffaa00","line_opacity":1.0,"line_width":2.0},"geometry":{"type":"LineString","coordinates":[[-121.0580709259825,39.21918906325757],[-121.0580759376653,39.21905156073922],[-121.0580886308177,39.21900895474894],[-121.0581108620109,39.21896350202111],[-121.0581257719585,39.21893097296997]]}},{"type":"Feature","properties":{"name":"Untitled Path","description":"","folder_path":"OL-NCNG-1912-byAndrewBrandon.kmz / Nevada County Narrow Gauge ca. 1916 / Trackage / Grass Valley Yard 1912","style_url":"#msn_ylw-pushpin470","resolved_style_url":"#sn_ylw-pushpin521","line_color":"#ffaa00","line_opacity":1.0,"line_width":2.0},"geometry":{"type":"LineString","coordinates":[[-121.0581754658094,39.2189365776736],[-121.0581869635822,39.21898975893513],[-121.0581904311453,39.21904665462815],[-121.0581867317276,39.21920301467243]]}},{"type":"Feature","properties":{"name":"Engine House Lead","description":"","folder_path":"OL-NCNG-1912-byAndrewBrandon.kmz / Nevada County Narrow Gauge ca. 1916 / Trackage / Grass Valley Yard 1912","style_url":"#msn_ylw-pushpin470","resolved_style_url":"#sn_ylw-pushpin521","line_color":"#ffaa00","line_opacity":1.0,"line_width":2.0},"geometry":{"type":"LineString","coordinates":[[-121.0581462578295,39.21893125981337],[-121.0581407286176,39.2190376210771],[-121.0581343008464,39.21910646112198],[-121.0581255815932,39.2191997103452]]}},{"type":"Feature","properties":{"name":"Untitled Path","description":"","folder_path":"OL-NCNG-1912-byAndrewBrandon.kmz / Nevada County Narrow Gauge ca. 1916 / Trackage / Grass Valley Yard 1912","style_url":"#msn_ylw-pushpin470","resolved_style_url":"#sn_ylw-pushpin521","line_color":"#ffaa00","line_opacity":1.0,"line_width":2.0},"geometry":{"type":"LineString","coordinates":[[-121.0582174047674,39.21921150548451],[-121.0582226360205,39.2190727171712],[-121.0582151761495,39.21900737258053],[-121.0581811374936,39.21893879343315]]}},{"type":"Feature","properties":{"name":"Untitled Path","description":"","folder_path":"OL-NCNG-1912-byAndrewBrandon.kmz / Nevada County Narrow Gauge ca. 1916 / Trackage / Grass Valley Yard 1912","style_url":"#msn_ylw-pushpin470","resolved_style_url":"#sn_ylw-pushpin521","line_color":"#ffaa00","line_opacity":1.0,"line_width":2.0},"geometry":{"type":"LineString","coordinates":[[-121.0571817691065,39.21961743568314],[-121.0573941161756,39.21955041741532],[-121.0575273498727,39.21949309653978],[-121.0576492594839,39.21940803357423],[-121.0577217301138,39.21934224187597],[-121.0577801424113,39.21927568083569],[-121.0578324960893,39.21920690167075]]}},{"type":"Feature","properties":{"name":"National Ice House Spur","description":"Served Concrete Brick Plant and National Ice House","folder_path":"OL-NCNG-1912-byAndrewBrandon.kmz / Nevada County Narrow Gauge ca. 1916 / Trackage / Grass Valley Yard 1912","style_url":"#msn_ylw-pushpin4","resolved_style_url":"#sn_ylw-pushpin11","line_color":"#ff9900","line_opacity":1.0,"line_width":2.1},"geometry":{"type":"LineString","coordinates":[[-121.0545047850937,39.21660344531842],[-121.054315375971,39.21656058505142],[-121.0537020728761,39.21655307287205],[-121.0535581667016,39.21658671102617]]}},{"type":"Feature","properties":{"name":"Powder House Spur - 1930s","description":"1930's\n\n1 Car Spur for Brunswick Powder House\n\n\nSite can be spotted today, as a parking spot along the narrow road (ROW).","folder_path":"OL-NCNG-1912-byAndrewBrandon.kmz / Nevada County Narrow Gauge ca. 1916 / Trackage","style_url":"#msn_ylw-pushpin39","resolved_style_url":"#sn_ylw-pushpin1","line_color":"#ffaa00","line_opacity":1.0,"line_width":2.0},"geometry":{"type":"LineString","coordinates":[[-121.010021198005,39.2054969065229],[-121.0100335479153,39.20545060559886],[-121.0100300721407,39.20539317112159]]}},{"type":"Feature","properties":{"name":"Untitled Path","description":"","folder_path":"OL-NCNG-1912-byAndrewBrandon.kmz / Nevada County Narrow Gauge ca. 1916 / Trackage / Chicago Park Circa 1912","style_url":"#msn_ylw-pushpin2","resolved_style_url":"#sn_ylw-pushpin19","line_color":"#ffaa00","line_opacity":1.0,"line_width":2.0},"geometry":{"type":"LineString","coordinates":[[-120.9683736873187,39.14531719855688],[-120.9683595367464,39.14541589687968],[-120.9683406410463,39.14549033850037],[-120.968298077072,39.14555478564694],[-120.968269472444,39.14561749991645],[-120.9682634625363,39.14567675553383],[-120.9682706052688,39.14573032380397],[-120.9682993181912,39.14592076765165]]}},{"type":"Feature","properties":{"name":"Untitled Path","description":"","folder_path":"OL-NCNG-1912-byAndrewBrandon.kmz / Nevada County Narrow Gauge ca. 1916 / Trackage / Chicago Park Circa 1912","style_url":"#msn_ylw-pushpin2","resolved_style_url":"#sn_ylw-pushpin19","line_color":"#ffaa00","line_opacity":1.0,"line_width":2.0},"geometry":{"type":"LineString","coordinates":[[-120.9683613276837,39.14541859465887],[-120.9683560985068,39.14553047553111],[-120.9684622901028,39.14611556451724],[-120.9684872520967,39.14630441874532],[-120.9684924689257,39.1464616703479],[-120.9684878068497,39.1466011056301],[-120.9684866971712,39.14667777567691],[-120.9684891798004,39.14679790799938]]}},{"type":"Feature","properties":{"name":"Glenbrook Fairgrounds Spur","description":"","folder_path":"OL-NCNG-1912-byAndrewBrandon.kmz / Nevada County Narrow Gauge ca. 1916 / Trackage","style_url":"#msn_ylw-pushpin470","resolved_style_url":"#sn_ylw-pushpin521","line_color":"#ffaa00","line_opacity":1.0,"line_width":2.0},"geometry":{"type":"LineString","coordinates":[[-121.0265427392425,39.2332191315117],[-121.0277418927925,39.23338155712337],[-121.0292825609701,39.23414397075032],[-121.031122485811,39.23497471289375],[-121.0318701633281,39.23506418174424]]}},{"type":"Feature","properties":{"name":"Nevada City Yard Trackage","description":"","folder_path":"OL-NCNG-1912-byAndrewBrandon.kmz / Nevada County Narrow Gauge ca. 1916 / Trackage","style_url":"#msn_ylw-pushpin18","resolved_style_url":"#sn_ylw-pushpin5","line_color":"#ffaa00","line_opacity":1.0,"line_width":2.0},"geometry":{"type":"LineString","coordinates":[[-121.0179462710782,39.2576779540242],[-121.0180043393364,39.25806326805645],[-121.0181648095638,39.25833709024165],[-121.0182880785139,39.25856108078671],[-121.0183754811882,39.25878317307958],[-121.0183918100184,39.25895495172493],[-121.0183674419485,39.25910257187179],[-121.0182923653946,39.25929874799436]]}},{"type":"Feature","properties":{"name":"Pittsburg Mine Spur","description":"","folder_path":"OL-NCNG-1912-byAndrewBrandon.kmz / Nevada County Narrow Gauge ca. 1916 / Trackage","style_url":"#msn_ylw-pushpin18","resolved_style_url":"#sn_ylw-pushpin5","line_color":"#ffaa00","line_opacity":1.0,"line_width":2.0},"geometry":{"type":"LineString","coordinates":[[-121.0206317114249,39.24565524161041],[-121.0206681612716,39.24561547230888],[-121.0206956318533,39.24556396383047],[-121.0207404252845,39.24550114006215],[-121.0208585006402,39.24538037956262]]}},{"type":"Feature","properties":{"name":"Brunswick Spur - Circa 1890","description":"From Mining Company Map","folder_path":"OL-NCNG-1912-byAndrewBrandon.kmz / Nevada County Narrow Gauge ca. 1916 / Trackage / Brunswick Mine","style_url":"#msn_ylw-pushpin3","resolved_style_url":"#sn_ylw-pushpin12","line_color":"#ffaa00","line_opacity":1.0,"line_width":2.0},"geometry":{"type":"LineString","coordinates":[[-121.0155335321085,39.20910144901733],[-121.0158986115437,39.20948653966384],[-121.016107147974,39.20970326093833],[-121.0163338696963,39.20995134115291],[-121.0167077654378,39.21041278277642],[-121.0169259866725,39.21069633801332],[-121.0172324860916,39.21108480239919]]}},{"type":"Feature","properties":{"name":"Powder House Spur","description":"","folder_path":"OL-NCNG-1912-byAndrewBrandon.kmz / Nevada County Narrow Gauge ca. 1916 / Trackage","style_url":"#msn_ylw-pushpin44","resolved_style_url":"#sn_ylw-pushpin4700","line_color":"#ffaa00","line_opacity":1.0,"line_width":2.0},"geometry":{"type":"LineString","coordinates":[[-121.0266733236237,39.23332779786671],[-121.0267594208722,39.23335975433848],[-121.026844410536,39.23338315158991],[-121.0269184031468,39.23341865544741],[-121.0271108548105,39.2335724132088]]}},{"type":"Feature","properties":{"name":"Golden Gate Spur","description":"Site of 1933 wreck.","folder_path":"OL-NCNG-1912-byAndrewBrandon.kmz / Nevada County Narrow Gauge ca. 1916 / Trackage","style_url":"#msn_ylw-pushpin470","resolved_style_url":"#sn_ylw-pushpin521","line_color":"#ffaa00","line_opacity":1.0,"line_width":2.0},"geometry":{"type":"LineString","coordinates":[[-121.0356689705108,39.22446003187814],[-121.0354140653806,39.22466263469905]]}},{"type":"Feature","properties":{"name":"Powder House Spur.","description":"","folder_path":"OL-NCNG-1912-byAndrewBrandon.kmz / Nevada County Narrow Gauge ca. 1916 / Trackage","style_url":"#msn_ylw-pushpin17","resolved_style_url":"#sn_ylw-pushpin14","line_color":"#ffaa00","line_opacity":1.0,"line_width":2.0},"geometry":{"type":"LineString","coordinates":[[-121.0363663095035,39.2243600860089],[-121.0364968425216,39.22436821216711],[-121.0367034740557,39.22440598178029]]}},{"type":"Feature","properties":{"name":"Idaho-Maryland Mine Spur","description":"Jog in fence line notes gate location.","folder_path":"OL-NCNG-1912-byAndrewBrandon.kmz / Nevada County Narrow Gauge ca. 1916 / Trackage","style_url":"#msn_ylw-pushpin470","resolved_style_url":"#sn_ylw-pushpin521","line_color":"#ffaa00","line_opacity":1.0,"line_width":2.0},"geometry":{"type":"LineString","coordinates":[[-121.036489944831,39.22434596326009],[-121.0366298309837,39.22431364628116],[-121.0367248312559,39.22426608709316],[-121.0367741086075,39.22419393905777],[-121.0367776664407,39.22408535895961],[-121.0367637106267,39.22403127575572],[-121.0367341252945,39.22390628504126]]}},{"type":"Feature","properties":{"name":"Idaho-Maryland Mine Lumber Yard Spur.","description":"","folder_path":"OL-NCNG-1912-byAndrewBrandon.kmz / Nevada County Narrow Gauge ca. 1916 / Trackage","style_url":"#msn_ylw-pushpin470","resolved_style_url":"#sn_ylw-pushpin521","line_color":"#ffaa00","line_opacity":1.0,"line_width":2.0},"geometry":{"type":"LineString","coordinates":[[-121.0421536353651,39.22295975375815],[-121.044011579812,39.22283459052097],[-121.044344524545,39.22284478095936]]}},{"type":"Feature","properties":{"name":"Gashouse Spur, Pacific Gas And Electric Gas Plant.","description":"3 Car Spur.","folder_path":"OL-NCNG-1912-byAndrewBrandon.kmz / Nevada County Narrow Gauge ca. 1916 / Trackage","style_url":"#msn_ylw-pushpin470","resolved_style_url":"#sn_ylw-pushpin521","line_color":"#ffaa00","line_opacity":1.0,"line_width":2.0},"geometry":{"type":"LineString","coordinates":[[-121.0473758207829,39.22295472554023],[-121.0474038725807,39.2229839704875],[-121.0475486017168,39.22300461112353]]}},{"type":"Feature","properties":{"name":"Warehouse and Associate Oil Spur.","description":"","folder_path":"OL-NCNG-1912-byAndrewBrandon.kmz / Nevada County Narrow Gauge ca. 1916 / Trackage","style_url":"#msn_ylw-pushpin470","resolved_style_url":"#sn_ylw-pushpin521","line_color":"#ffaa00","line_opacity":1.0,"line_width":2.0},"geometry":{"type":"LineString","coordinates":[[-121.0511844499976,39.22122299294595],[-121.0509001724242,39.22137557334194],[-121.0506360427774,39.22152499839148],[-121.0505437296672,39.22158212038887],[-121.0504373003102,39.22162388087536],[-121.0503055564813,39.2216707591266]]}},{"type":"Feature","properties":{"name":"Warehouse and Union Oil Spur.","description":"","folder_path":"OL-NCNG-1912-byAndrewBrandon.kmz / Nevada County Narrow Gauge ca. 1916 / Trackage","style_url":"#msn_ylw-pushpin470","resolved_style_url":"#sn_ylw-pushpin521","line_color":"#ffaa00","line_opacity":1.0,"line_width":2.0},"geometry":{"type":"LineString","coordinates":[[-121.0512570666994,39.22112144556364],[-121.0511665619726,39.22113037821645],[-121.0510657951532,39.22113190253263],[-121.0509692753325,39.22113679103573],[-121.0508812790498,39.22114509287396],[-121.0507638878867,39.22119027231503],[-121.0506327310829,39.22125213943458],[-121.0504517180715,39.22133853360314],[-121.0502534905091,39.22151761768276]]}},{"type":"Feature","properties":{"name":"Untitled Path","description":"","folder_path":"OL-NCNG-1912-byAndrewBrandon.kmz / Nevada County Narrow Gauge ca. 1916 / Trackage / Colfax","style_url":"#msn_ylw-pushpin430","resolved_style_url":"#sn_ylw-pushpin07","line_color":"#ffaa00","line_opacity":1.0,"line_width":2.0},"geometry":{"type":"LineString","coordinates":[[-120.9539824781831,39.0973843157598],[-120.9541575619153,39.09701648540093],[-120.954201171573,39.09690318254924],[-120.9542384558416,39.09674751811044],[-120.9542729993222,39.0964958549097]]}},{"type":"Feature","properties":{"name":"Untitled Path","description":"","folder_path":"OL-NCNG-1912-byAndrewBrandon.kmz / Nevada County Narrow Gauge ca. 1916 / Trackage / Colfax","style_url":"#msn_ylw-pushpin77","resolved_style_url":"#sn_ylw-pushpin303","line_color":"#ffaa00","line_opacity":1.0,"line_width":2.0},"geometry":{"type":"LineString","coordinates":[[-120.9540186156506,39.09738792243395],[-120.9542004131597,39.09701204057386],[-120.9542435989572,39.09689200022517],[-120.9542708867784,39.09675048944533],[-120.9542819419375,39.09660266329057],[-120.954272730001,39.09646128159961],[-120.9542687512635,39.09618856997959]]}},{"type":"Feature","properties":{"name":"Transfer Spur","description":"","folder_path":"OL-NCNG-1912-byAndrewBrandon.kmz / Nevada County Narrow Gauge ca. 1916 / Trackage / Colfax","style_url":"#msn_ylw-pushpin430","resolved_style_url":"#sn_ylw-pushpin07","line_color":"#ffaa00","line_opacity":1.0,"line_width":2.0},"geometry":{"type":"LineString","coordinates":[[-120.954275842691,39.09603674404439],[-120.9543289199428,39.09629734308405],[-120.9543423164692,39.09645757689706],[-120.9543385267756,39.09660394148764],[-120.9543060065754,39.09683595611109],[-120.9542512902289,39.09699942781453]]}},{"type":"Feature","properties":{"name":"Colfax Depot Siding","description":"","folder_path":"OL-NCNG-1912-byAndrewBrandon.kmz / Nevada County Narrow Gauge ca. 1916 / Trackage / Colfax","style_url":"#msn_ylw-pushpin016","resolved_style_url":"#sn_ylw-pushpin636","line_color":"#ffaa00","line_opacity":1.0,"line_width":2.0},"geometry":{"type":"LineString","coordinates":[[-120.9525683386439,39.10038463756911],[-120.9529031811891,39.09941646866141],[-120.9529921132741,39.09915658794652]]}},{"type":"Feature","properties":{"name":"Fruit Shed Siding","description":"","folder_path":"OL-NCNG-1912-byAndrewBrandon.kmz / Nevada County Narrow Gauge ca. 1916 / Trackage / Colfax","style_url":"#msn_ylw-pushpin0012","resolved_style_url":"#sn_ylw-pushpin250","line_color":"#ffaa00","line_opacity":1.0,"line_width":2.0},"geometry":{"type":"LineString","coordinates":[[-120.9532501612975,39.09828948146954],[-120.9533173771088,39.09811407785382],[-120.953996268546,39.09676239805455],[-120.9540947792555,39.09662150491189]]}},{"type":"Feature","properties":{"name":"Gravel Bin Spur","description":"Gas Powered Gravel Winch\nBallast siding","folder_path":"OL-NCNG-1912-byAndrewBrandon.kmz / Nevada County Narrow Gauge ca. 1916 / Trackage","style_url":"#msn_ylw-pushpin","resolved_style_url":"#sn_ylw-pushpin6","line_color":"#ffaa00","line_opacity":1.0,"line_width":2.0},"geometry":{"type":"LineString","coordinates":[[-120.9502274522247,39.13521221723622],[-120.9495563324754,39.13529427531535],[-120.9493172722409,39.13533958054363],[-120.9491420188865,39.13538576381461],[-120.949003923428,39.13543429998054],[-120.9488436414005,39.13548748658506],[-120.948710310052,39.13554477883202],[-120.9485807644717,39.13560145023627]]}},{"type":"Feature","properties":{"name":"Untitled Path","description":"","folder_path":"OL-NCNG-1912-byAndrewBrandon.kmz / Nevada County Narrow Gauge ca. 1916 / Trackage / Glenbrook Siding","style_url":"#msn_ylw-pushpin45","resolved_style_url":"#sn_ylw-pushpin49","line_color":"#ffaa00","line_opacity":1.0,"line_width":2.0},"geometry":{"type":"LineString","coordinates":[[-121.0288850074954,39.23618212838777],[-121.0289695663627,39.23626760791343]]}},{"type":"Feature","properties":{"name":"Powder House & Glenbrook Siding","description":"","folder_path":"OL-NCNG-1912-byAndrewBrandon.kmz / Nevada County Narrow Gauge ca. 1916 / Trackage / Glenbrook Siding","style_url":"#msn_ylw-pushpin6","resolved_style_url":"#sn_ylw-pushpin1140","line_color":"#ffaa00","line_opacity":1.0,"line_width":2.0},"geometry":{"type":"LineString","coordinates":[[-121.0288950873864,39.23655567214161],[-121.0289325702405,39.23644300167366],[-121.0289372221575,39.23635379255845],[-121.0289220483406,39.23627924527638],[-121.0288863311267,39.23617753493613],[-121.02875132401,39.23591687024049],[-121.0287489675503,39.23584402032194]]}},{"type":"Feature","properties":{"name":"Bear River Siding","description":"Approx?","folder_path":"OL-NCNG-1912-byAndrewBrandon.kmz / Nevada County Narrow Gauge ca. 1916 / Trackage","style_url":"#msn_ylw-pushpin1","resolved_style_url":"#sn_ylw-pushpin8","line_color":"#ffaa00","line_opacity":1.0,"line_width":2.0},"geometry":{"type":"LineString","coordinates":[[-120.9498036416466,39.13489403365539],[-120.9500168644154,39.134824293901],[-120.9502253358535,39.13477074001984],[-120.9504096167873,39.13474294538041],[-120.9505787959619,39.13471544685851],[-120.9507862350258,39.13468678873385],[-120.9510039282881,39.13467043813191],[-120.9512019669818,39.13467733823745],[-120.9514125149199,39.13469024258836]]}},{"type":"Feature","properties":{"name":"Powder House Spur","description":"Unsure which mine.","folder_path":"OL-NCNG-1912-byAndrewBrandon.kmz / Nevada County Narrow Gauge ca. 1916 / Trackage","style_url":"#msn_ylw-pushpin44","resolved_style_url":"#sn_ylw-pushpin4700","line_color":"#ffaa00","line_opacity":1.0,"line_width":2.0},"geometry":{"type":"LineString","coordinates":[[-121.0446019164062,39.21794856064515],[-121.0444558802771,39.2179732766621],[-121.0443013755167,39.21798719213103],[-121.0440016520712,39.217990552547]]}},{"type":"Feature","properties":{"name":"Coleman Siding","description":"","folder_path":"OL-NCNG-1912-byAndrewBrandon.kmz / Nevada County Narrow Gauge ca. 1916 / Trackage / Coleman","style_url":"#msn_ylw-pushpin7","resolved_style_url":"#sn_ylw-pushpin2","line_color":"#ffaa00","line_opacity":1.0,"line_width":2.5},"geometry":{"type":"LineString","coordinates":[[-120.9687482200211,39.16115291065675],[-120.9687732566901,39.16128315171385],[-120.9686992280988,39.16201509085731],[-120.9686626381792,39.16212228996758]]}},{"type":"Feature","properties":{"name":"Mohawk Lumber Co. Spur","description":"","folder_path":"OL-NCNG-1912-byAndrewBrandon.kmz / Nevada County Narrow Gauge ca. 1916 / Trackage / Coleman","style_url":"#msn_ylw-pushpin7","resolved_style_url":"#sn_ylw-pushpin2","line_color":"#ffaa00","line_opacity":1.0,"line_width":2.5},"geometry":{"type":"LineString","coordinates":[[-120.9687756106446,39.16128320653022],[-120.968807970293,39.1613553978426],[-120.9688821902484,39.16144333611505],[-120.9689901957141,39.16151949378693],[-120.969118040478,39.16158354920355],[-120.9697134215709,39.1617935506547]]}},{"type":"Feature","properties":{"name":"Nevada City Depot Siding","description":"","folder_path":"OL-NCNG-1912-byAndrewBrandon.kmz / Nevada County Narrow Gauge ca. 1916 / Trackage / Nevada City","style_url":"#msn_ylw-pushpin18","resolved_style_url":"#sn_ylw-pushpin5","line_color":"#ffaa00","line_opacity":1.0,"line_width":2.0},"geometry":{"type":"LineString","coordinates":[[-121.0178027117819,39.25952226725904],[-121.0178265576773,39.25939734485338],[-121.0178143997696,39.25876335317341],[-121.017803969678,39.25845640994528],[-121.0178209047109,39.25827676803385],[-121.0178637460887,39.25803094497056],[-121.0179329766858,39.25772676628436],[-121.0179746769468,39.25751295553277]]}},{"type":"Feature","properties":{"name":"NC Siding 2","description":"","folder_path":"OL-NCNG-1912-byAndrewBrandon.kmz / Nevada County Narrow Gauge ca. 1916 / Trackage / Nevada City","style_url":"#msn_ylw-pushpin470","resolved_style_url":"#sn_ylw-pushpin521","line_color":"#ffaa00","line_opacity":1.0,"line_width":2.0},"geometry":{"type":"LineString","coordinates":[[-121.017883651449,39.25775024922684],[-121.017822640982,39.25789236089158],[-121.0177597196783,39.2581081499369],[-121.0177231651353,39.25833666611258],[-121.0177124607367,39.25860061976687],[-121.017728194801,39.25897441321273],[-121.0177478661738,39.25918330340894],[-121.0177900551387,39.25934784687207]]}},{"type":"Feature","properties":{"name":"NC Siding 3","description":"","folder_path":"OL-NCNG-1912-byAndrewBrandon.kmz / Nevada County Narrow Gauge ca. 1916 / Trackage / Nevada City","style_url":"#msn_ylw-pushpin470","resolved_style_url":"#sn_ylw-pushpin521","line_color":"#ffaa00","line_opacity":1.0,"line_width":2.0},"geometry":{"type":"LineString","coordinates":[[-121.0177189392098,39.2583609031817],[-121.017679231668,39.25857047773513],[-121.0176980216098,39.25908180341631],[-121.0177491374761,39.25918986087672]]}},{"type":"Feature","properties":{"name":"Turntable Lead","description":"","folder_path":"OL-NCNG-1912-byAndrewBrandon.kmz / Nevada County Narrow Gauge ca. 1916 / Trackage / Nevada City","style_url":"#msn_ylw-pushpin470","resolved_style_url":"#sn_ylw-pushpin521","line_color":"#ffaa00","line_opacity":1.0,"line_width":2.0},"geometry":{"type":"LineString","coordinates":[[-121.0177827654126,39.25802279866968],[-121.0177880628315,39.25792526549383],[-121.0177969671359,39.25782433829377],[-121.0178576319099,39.25761932132168],[-121.0179760084759,39.2573373195557]]}},{"type":"Feature","properties":{"name":"Engine House Lead","description":"","folder_path":"OL-NCNG-1912-byAndrewBrandon.kmz / Nevada County Narrow Gauge ca. 1916 / Trackage / Nevada City","style_url":"#msn_ylw-pushpin470","resolved_style_url":"#sn_ylw-pushpin521","line_color":"#ffaa00","line_opacity":1.0,"line_width":2.0},"geometry":{"type":"LineString","coordinates":[[-121.017675709799,39.25856150069574],[-121.0176932893054,39.25825998067889],[-121.0176755652582,39.25807528200352],[-121.0176828217325,39.25791029837958],[-121.0177272480624,39.25777640380298],[-121.0177733854422,39.25758891080118]]}},{"type":"Feature","properties":{"name":"Smith Siding","description":"","folder_path":"OL-NCNG-1912-byAndrewBrandon.kmz / Nevada County Narrow Gauge ca. 1916 / Trackage / Smiths","style_url":"#msn_ylw-pushpin0202","resolved_style_url":"#sn_ylw-pushpin0231","line_color":"#ffaa00","line_opacity":1.0,"line_width":2.0},"geometry":{"type":"LineString","coordinates":[[-120.9413875362978,39.1225522009652],[-120.9414099951965,39.12248670178551],[-120.9414448901557,39.1223960847818],[-120.9415392951628,39.122174704073],[-120.9416915817571,39.12183014333615]]}},{"type":"Feature","properties":{"name":"Untitled Path","description":"","folder_path":"OL-NCNG-1912-byAndrewBrandon.kmz / Nevada County Narrow Gauge ca. 1916 / Trackage / Peardale","style_url":"#msn_ylw-pushpin33","resolved_style_url":"#sn_ylw-pushpin05","line_color":"#ff9900","line_opacity":1.0,"line_width":2.1},"geometry":{"type":"LineString","coordinates":[[-120.9745449961268,39.18965628616102],[-120.9751637186514,39.18970208403064],[-120.975254956122,39.18972223197382]]}},{"type":"Feature","properties":{"name":"Shell Oil Co. Siding","description":"","folder_path":"OL-NCNG-1912-byAndrewBrandon.kmz / Nevada County Narrow Gauge ca. 1916 / Trackage / Town Talk","style_url":"#msn_ylw-pushpin45","resolved_style_url":"#sn_ylw-pushpin49","line_color":"#ffaa00","line_opacity":1.0,"line_width":2.0},"geometry":{"type":"LineString","coordinates":[[-121.032537146644,39.2406531308279],[-121.0326051514086,39.24072174162428],[-121.0327065018976,39.2408927808576],[-121.0327320800127,39.24097800439778]]}},{"type":"Feature","properties":{"name":"Standard Oil Co. Spur","description":"","folder_path":"OL-NCNG-1912-byAndrewBrandon.kmz / Nevada County Narrow Gauge ca. 1916 / Trackage / Town Talk","style_url":"#msn_ylw-pushpin280","resolved_style_url":"#sn_ylw-pushpin390","line_color":"#ffaa00","line_opacity":1.0,"line_width":2.0},"geometry":{"type":"LineString","coordinates":[[-121.0319454269369,39.24244725818794],[-121.0322744301036,39.24229542776801],[-121.032767721216,39.24207080412357]]}},{"type":"Feature","properties":{"name":"You Bet Station Siding","description":"","folder_path":"OL-NCNG-1912-byAndrewBrandon.kmz / Nevada County Narrow Gauge ca. 1916 / Trackage / You Bet Station","style_url":"#msn_ylw-pushpin12","resolved_style_url":"#sn_ylw-pushpin4","line_color":"#ffaa00","line_opacity":1.0,"line_width":2.1},"geometry":{"type":"LineString","coordinates":[[-120.9482362024505,39.15587344541464],[-120.9482594519693,39.15600418819626],[-120.9485067132107,39.15635502365505],[-120.9486307663652,39.15644870197801]]}},{"type":"Feature","properties":{"name":"You Bet Spur","description":"","folder_path":"OL-NCNG-1912-byAndrewBrandon.kmz / Nevada County Narrow Gauge ca. 1916 / Trackage / You Bet Station","style_url":"#msn_ylw-pushpin12","resolved_style_url":"#sn_ylw-pushpin4","line_color":"#ffaa00","line_opacity":1.0,"line_width":2.1},"geometry":{"type":"LineString","coordinates":[[-120.9484947626197,39.15634321318799],[-120.9481678052314,39.15605426791019]]}},{"type":"Feature","properties":{"name":"Union Hill Siding","description":"20 Cars","folder_path":"OL-NCNG-1912-byAndrewBrandon.kmz / Nevada County Narrow Gauge ca. 1916 / Trackage / Union Hill","style_url":"#msn_ylw-pushpin4","resolved_style_url":"#sn_ylw-pushpin11","line_color":"#ff9900","line_opacity":1.0,"line_width":2.1},"geometry":{"type":"LineString","coordinates":[[-121.0207571826844,39.21182740023671],[-121.0206300535962,39.21168367158909],[-121.0201879892544,39.21138413232576],[-121.0199848022513,39.21130055940227]]}},{"type":"Feature","properties":{"name":"Supheret Works Siding","description":"","folder_path":"OL-NCNG-1912-byAndrewBrandon.kmz / Nevada County Narrow Gauge ca. 1916 / Trackage / Maltman Thompson Sulpheret Works","style_url":"#msn_ylw-pushpin9","resolved_style_url":"#sn_ylw-pushpin7","line_color":"#ff9900","line_opacity":1.0,"line_width":2.1},"geometry":{"type":"LineString","coordinates":[[-121.0350609228057,39.21613601266752],[-121.034864100233,39.21605007000475],[-121.0346409508824,39.21598766261565],[-121.0343607586812,39.21593573497258],[-121.0341096093625,39.21591907414847],[-121.0338956825151,39.21591551503968],[-121.0337158942934,39.21594342642408]]}}]}
