{"type":"FeatureCollection","source":"Nevada County Parcel Information GeoJSON","caveat":"Only the NCNG RR legal-description match is explicit. RR000 and RW000 are retained as review candidates because the source has no use-code dictionary.","features":[{"type":"Feature","properties":{"APN":"1819017000","APNSeven":"1819017","LegalDescription":"PCL 3 PM 8/17","Acreage":7.53,"GISACRES":7.53,"ZDM":"134","ZONING":"TOWN OF TRUCKEE","UseCode":"RW000","Status":"A","TaxAreaCode":"03047","RollYear":"17/18","TotalLandValue":109247,"TotalImproveValue":null,"BusinessPersonalPropVal":null,"BusinessFixturesVal":null,"GrossRollValue":109247,"ExemptionCode":null,"ExemptionValue":null,"NetRollValue":109247,"REPORT_URL":"http://reports.nevcounty.net/property/rdPage.aspx?rdReport=parcel.ParcelReport&APN=1819017000","GPDES":"TRUCKEE","JURISDICTION":"TRUCKEE CITY","COMBNDRY":"TRUCKEE","SUPDIST":5,"FIREDIST":"Truckee","PARK_DIST":"Truckee Donner","ELEM":"Tahoe/Truckee Unified - TA 1","SANDIST":null,"NID_DIST":null,"WATER_DIST":null,"PUBLIC_UTIL_DIST":"Truckee Donner Utility","SERVICE_AREA":"AREA NO. 07 - ","CENTRACT":12.03,"CENBLKGP":"3","PRECINCT":"507","STATE_ASSEMBLY":1,"SENATE_DIST":1,"CONGRESS_DIST":"FTHLL","MINFT":6115,"MAXFT":6351,"RANGEFT":236,"CL_ZONE":"16","W_EXP":"C","SL_ZONE":"E","TL_DIST":null,"SNOWLOAD":"TRUCKEE","MINERAL":"N","MailingAddress":"910 MOCKINGBIRD LN","MailingCityState":"PLEASANTON, CA","MailingZip":"94566","SquareFeetOnRecord":null,"Floor1SquareFeet":null,"Floor2Description":null,"Floor2SquareFeet":null,"BasementDescription":null,"BasementSquareFeet":null,"VehicleBuildingType":null,"VehicleBuildingSquareFeet":null,"HasPorch":"No","PorchSquareFeet":null,"ImprovementsDescription":null,"ImprovementsSquareFeet":null,"HasGuestHouse":null,"GuestHouseSquareFeet":null,"LastParcelUpdate":"2016-01-13T14:05:36.000Z","OBJECTID":73943794,"YearBuilt":null,"TotalUnits":0,"Stories":null,"Bedrooms":null,"Baths":null,"Rooms":null,"Fireplaces":null,"TemperatureControl":null,"PoolSpa":null,"PhysicalAccess":"county road","RoadSurface":"dirt","HasSewer":"Yes","WaterSource":"well","Topography":"rolling","AreaView":"average","Frontage":"typical","GroundCover":"conifers","transit_match_reason":"Parcel use code RW000"},"geometry":{"type":"Polygon","coordinates":[[[-120.20307679316602,39.33906673239934],[-120.20308757474605,39.33691303457335],[-120.20308758013594,39.33691215775366],[-120.20308759271236,39.33690956342351],[-120.20308780291815,39.33686744827396],[-120.20308782268107,39.33686344422078],[-120.20308782807096,39.33686241454753],[-120.20308783076591,39.33686205464821],[-120.20445108529502,39.3368536609346],[-120.20449317046776,39.33692682190097],[-120.20464330410455,39.3370970281959],[-120.20478694202353,39.33727058223212],[-120.20492396115549,39.337447334606786],[-120.20480251431898,39.33750696689422],[-120.20468354683265,39.337569540131355],[-120.20365834002308,39.33943128751638],[-120.20307497677251,39.339429539498276],[-120.20307679316602,39.33906673239934]]]}},{"type":"Feature","properties":{"APN":"1214012000","APNSeven":"1214012","LegalDescription":"LT 10 BLK C FOR PK PTN NCNG RR","Acreage":0.62,"GISACRES":0.62,"ZDM":"66","ZONING":"RA-3","UseCode":"RB000","Status":"A","TaxAreaCode":"62006","RollYear":"17/18","TotalLandValue":84882,"TotalImproveValue":251464,"BusinessPersonalPropVal":null,"BusinessFixturesVal":null,"GrossRollValue":336346,"ExemptionCode":null,"ExemptionValue":null,"NetRollValue":336346,"REPORT_URL":"http://reports.nevcounty.net/property/rdPage.aspx?rdReport=parcel.ParcelReport&APN=1214012000","GPDES":"EST","JURISDICTION":null,"COMBNDRY":null,"SUPDIST":1,"FIREDIST":"Peardale-Chicago Park","PARK_DIST":null,"ELEM":"Grass Valley","SANDIST":null,"NID_DIST":"NID Water - Zone 2.0","WATER_DIST":null,"PUBLIC_UTIL_DIST":null,"SERVICE_AREA":"AREA NO. 16 - ","CENTRACT":7.01,"CENBLKGP":"5","PRECINCT":"102","STATE_ASSEMBLY":1,"SENATE_DIST":1,"CONGRESS_DIST":"MTCAP","MINFT":2709,"MAXFT":2736,"RANGEFT":26,"CL_ZONE":"11","W_EXP":"C","SL_ZONE":"W","TL_DIST":null,"SNOWLOAD":"51","MINERAL":"N","MailingAddress":"11747 HILLTOP DR","MailingCityState":"GRASS VALLEY, CA","MailingZip":"95949","SquareFeetOnRecord":1122,"Floor1SquareFeet":1122,"Floor2Description":null,"Floor2SquareFeet":null,"BasementDescription":null,"BasementSquareFeet":null,"VehicleBuildingType":null,"VehicleBuildingSquareFeet":400,"HasPorch":"No","PorchSquareFeet":48,"ImprovementsDescription":"","ImprovementsSquareFeet":null,"HasGuestHouse":"Yes","GuestHouseSquareFeet":926,"LastParcelUpdate":"2015-08-25T08:57:49.000Z","OBJECTID":73948556,"YearBuilt":"1944","TotalUnits":2,"Stories":1,"Bedrooms":2,"Baths":1,"Rooms":3,"Fireplaces":1,"TemperatureControl":null,"PoolSpa":null,"PhysicalAccess":"county road","RoadSurface":"gravel or rick","HasSewer":"No","WaterSource":"well","Topography":"downslope","AreaView":"average","Frontage":"typical","GroundCover":"oaks & conifers","transit_match_reason":"Legal description explicitly references NCNG RR"},"geometry":{"type":"Polygon","coordinates":[[[-120.9989112375089,39.19176841606354],[-120.99884350633312,39.19175011645586],[-120.99874454522649,39.191725587705584],[-120.99864402284787,39.19170526415589],[-120.9985422338447,39.191689205685975],[-120.99845271672663,39.191678806841374],[-120.99836266870426,39.19167170602257],[-120.99827229010184,39.191667919940066],[-120.99815451108663,39.19166753214157],[-120.99815751684957,39.19160089065014],[-120.9981732706047,39.19125173159096],[-120.9987198729972,39.19122861044657],[-120.99870214115181,39.191624157879794],[-120.99892645047825,39.19167031844215],[-120.9989112375089,39.19176841606354]]]}},{"type":"Feature","properties":{"APN":"1105025000","APNSeven":"1105025","LegalDescription":"LOT 7 HIERS PROP SUBD","Acreage":10.2,"GISACRES":10.08,"ZDM":"57","ZONING":"RA-X","UseCode":"RR000","Status":"A","TaxAreaCode":"72001","RollYear":"17/18","TotalLandValue":114789,"TotalImproveValue":16960,"BusinessPersonalPropVal":null,"BusinessFixturesVal":null,"GrossRollValue":131749,"ExemptionCode":null,"ExemptionValue":null,"NetRollValue":131749,"REPORT_URL":"http://reports.nevcounty.net/property/rdPage.aspx?rdReport=parcel.ParcelReport&APN=1105025000","GPDES":"RUR-5","JURISDICTION":null,"COMBNDRY":null,"SUPDIST":2,"FIREDIST":"Nevada County Consolidated","PARK_DIST":"Bear River","ELEM":"Pleasant Ridge Union","SANDIST":null,"NID_DIST":"NID Water - Zone 3.0","WATER_DIST":null,"PUBLIC_UTIL_DIST":null,"SERVICE_AREA":"AREA NO. 16 - ","CENTRACT":1.02,"CENBLKGP":"4","PRECINCT":"209","STATE_ASSEMBLY":1,"SENATE_DIST":1,"CONGRESS_DIST":"MTCAP","MINFT":1856,"MAXFT":2001,"RANGEFT":144,"CL_ZONE":"11","W_EXP":"C","SL_ZONE":"W","TL_DIST":null,"SNOWLOAD":"31","MINERAL":"N","MailingAddress":"18969 HIERS RD","MailingCityState":"GRASS VALLEY, CA","MailingZip":"95949","SquareFeetOnRecord":null,"Floor1SquareFeet":null,"Floor2Description":null,"Floor2SquareFeet":null,"BasementDescription":null,"BasementSquareFeet":null,"VehicleBuildingType":null,"VehicleBuildingSquareFeet":null,"HasPorch":"Yes","PorchSquareFeet":128,"ImprovementsDescription":"outbldg","ImprovementsSquareFeet":708,"HasGuestHouse":null,"GuestHouseSquareFeet":null,"LastParcelUpdate":"2015-08-25T08:57:43.000Z","OBJECTID":73949557,"YearBuilt":null,"TotalUnits":0,"Stories":null,"Bedrooms":null,"Baths":null,"Rooms":null,"Fireplaces":null,"TemperatureControl":null,"PoolSpa":null,"PhysicalAccess":"county road","RoadSurface":"gravel or rick","HasSewer":"No","WaterSource":"well","Topography":"rolling","AreaView":"good","Frontage":"rural","GroundCover":"oaks & conifers","transit_match_reason":"Parcel use code RR000"},"geometry":{"type":"Polygon","coordinates":[[[-121.06437689898533,39.10185006210831],[-121.06394800284453,39.10191169480887],[-121.06386394478844,39.10191978343889],[-121.06377930462406,39.10192224007342],[-121.06369470578218,39.10191904519373],[-121.06361076899866,39.10191022459238],[-121.06352810692452,39.101895842401845],[-121.06344732592257,39.10187600388327],[-121.06336901977927,39.101850854032094],[-121.06329376161973,39.101820577578586],[-121.06307421336427,39.10171893306219],[-121.06299331647968,39.10168147414851],[-121.06291721749702,39.101638342067616],[-121.06284657038982,39.10158990488778],[-121.0627819824192,39.10153657877824],[-121.06272400874401,39.10147882312973],[-121.06267314703096,39.10141713288687],[-121.06262983296291,39.10135203924549],[-121.06259444023902,39.10128409919631],[-121.06256727159156,39.10121389831395],[-121.06254856237913,39.101142038905984],[-121.06250571184178,39.10097741868114],[-121.06248695681528,39.100912222853445],[-121.0624760261149,39.10084595478568],[-121.06247301406376,39.1007791833302],[-121.06247794311973,39.1007124808271],[-121.06249077645187,39.100646420315755],[-121.06251139907586,39.100581568563506],[-121.06253963671848,39.10051848257992],[-121.06257524593634,39.1004577026454],[-121.06278485343486,39.100079703202375],[-121.06597708506894,39.10030677387722],[-121.06589912298038,39.100349094615254],[-121.06582523744657,39.10039564412125],[-121.065755803065,39.10044618466554],[-121.06569117736514,39.10050045760448],[-121.06563168733375,39.1005581861693],[-121.0644789808393,39.101762445719615],[-121.06442337781814,39.101825520133296],[-121.06441643743426,39.10183270461352],[-121.0644080768139,39.1018389033707],[-121.06439852412916,39.101843948400216],[-121.06438803629824,39.10184770167329],[-121.06437689898533,39.10185006210831]]]}}]}
